BEIDOU 3 (C01)          
1 36287U 10001A   21279.56577272 -.00000280  00000-0  00000-0 0  9991
2 36287   1.6668  40.9719 0002619  79.6846 238.9312  1.00273407 42966
BEIDOU 5 (C06)          
1 36828U 10036A   21279.41687127 -.00000122  00000-0  00000-0 0  9990
2 36828  54.1814 178.5696 0023193 180.7257 273.3214  1.00271468 41031
BEIDOU 6 (C04)          
1 37210U 10057A   21279.64581655 -.00000113  00000-0  00000-0 0  9993
2 37210   0.7349  37.3003 0004380 144.9146 225.7433  1.00273604 40090
BEIDOU 7 (C07)          
1 37256U 10068A   21279.47450802 -.00000180  00000-0  00000-0 0  9999
2 37256  50.6656 292.6818 0018063 189.2016 173.2461  1.00274008 39608
BEIDOU 8 (C08)          
1 37384U 11013A   21279.51067226 -.00000165  00000-0  00000-0 0  9994
2 37384  59.9320  56.7864 0019043 180.8225  67.9353  1.00276680 38479
BEIDOU 9 (C09)          
1 37763U 11038A   21279.51336601 -.00000078  00000-0  00000-0 0  9991
2 37763  54.4687 181.0293 0086595 226.7697 246.5387  1.00287208 37450
BEIDOU 10 (C10)         
1 37948U 11073A   21279.50396374 -.00000133  00000-0  00000-0 0  9999
2 37948  50.7709 292.3052 0079055 217.6418 142.8475  1.00268110 36211
BEIDOU 11 (C05)         
1 38091U 12008A   21279.56125101  .00000057  00000-0  00000-0 0  9996
2 38091   1.7896  70.1985 0002979 318.7406 247.2530  1.00272946 35282
BEIDOU 12 (C11)         
1 38250U 12018A   21279.57766323 -.00000076  00000-0  00000-0 0  9994
2 38250  56.7452   1.9462 0023196 244.9783  33.0424  1.86234408 64359
BEIDOU 13 (C12)         
1 38251U 12018B   21278.97032422 -.00000076  00000-0  00000-0 0  9994
2 38251  56.6661   1.3086 0014449 245.0272  30.1379  1.86234306 64346
BEIDOU 15 (C14)         
1 38775U 12050B   21279.25272431  .00000075  00000-0  00000-0 0  9997
2 38775  55.2591 120.2480 0012498 328.9312 332.8055  1.86231348 61726
BEIDOU 16 (C02)         
1 38953U 12059A   21279.57202225 -.00000177  00000-0  00000-0 0  9997
2 38953   1.3607  84.1628 0009227 281.5231 299.8094  1.00273270 32859
BEIDOU 17 (C31)         
1 40549U 15019A   21279.53029307 -.00000136  00000-0  00000-0 0  9999
2 40549  52.3123 315.7061 0038256 189.4293 153.6183  1.00297323 23888
BEIDOU 18 (C57)         
1 40748U 15037A   21279.10545078 -.00000076  00000-0  00000-0 0  9994
2 40748  55.9253   0.3247 0001200  32.0496 243.4901  1.86233518 42171
BEIDOU 19 (C58)         
1 40749U 15037B   21279.44342785 -.00000076  00000-0  00000-0 0  9992
2 40749  55.9284   0.3003 0003221 289.7192 348.0176  1.86232177 42171
BEIDOU 20 (C18)         
1 40938U 15053A   21279.37757394 -.00000111  00000-0  00000-0 0  9998
2 40938  51.8975 278.7897 0047875 196.4304 130.3952  1.00258184 22159
BEIDOU IGSO-6 (C13)     
1 41434U 16021A   21279.58316860 -.00000137  00000-0  00000-0 0  9996
2 41434  57.7285  55.4806 0043337 210.5646  53.2872  1.00291160 20283
BEIDOU-2 G7 (C03)       
1 41586U 16037A   21279.43328122 -.00000354  00000-0  00000-0 0  9990
2 41586   1.9351  69.1910 0007511  12.4904 200.0918  1.00265857 19593
BEIDOU-3 M1 (C19)       
1 43001U 17069A   21279.40128741  .00000074  00000-0  00000-0 0  9990
2 43001  55.4130 120.2091 0007788 294.6568 262.7142  1.86231783 26666
BEIDOU-3 M2 (C20)       
1 43002U 17069B   21279.24155916  .00000075  00000-0  00000-0 0  9998
2 43002  55.4122 120.2502 0006579 323.7543 169.8358  1.86231423 26655
BEIDOU-3 M3 (C27)       
1 43107U 18003A   21279.51627241 -.00000078  00000-0  00000-0 0  9992
2 43107  55.3706   1.3403 0003807  63.8100  59.8908  1.86232575 25421
BEIDOU-3 M4 (C28)       
1 43108U 18003B   21279.17035927 -.00000078  00000-0  00000-0 0  9999
2 43108  55.3645   1.3413 0003767 230.0205  66.9464  1.86232650 25413
BEIDOU-3 M5 (C21)       
1 43207U 18018A   21279.17471233  .00000076  00000-0  00000+0 0  9995
2 43207  55.3710 120.3405 0004966   0.6429 359.4500  1.86231620 24809
BEIDOU-3 M6 (C22)       
1 43208U 18018B   21278.70449477  .00000078  00000-0  00000-0 0  9992
2 43208  55.3713 120.3605 0005791 311.1388  48.9075  1.86231788 24796
BEIDOU-3 M7 (C29)       
1 43245U 18029A   21279.45883019 -.00000076  00000-0  00000-0 0  9991
2 43245  55.2962 359.1275 0001060 186.8265 168.6321  1.86232775 23951
BEIDOU-3 M8 (C30)       
1 43246U 18029B   21279.25862627 -.00000076  00000-0  10000-3 0  9996
2 43246  55.2937 359.1652 0002919 341.9063 285.6279  1.86233240 23946
BEIDOU IGSO-7 (C16)     
1 43539U 18057A   21278.98194181 -.00000132  00000-0  00000-0 0  9993
2 43539  55.0621 177.9685 0041105 224.0359  78.7561  1.00288260 11951
BEIDOU-3 M9 (C23)       
1 43581U 18062A   21279.14193541  .00000013  00000-0  00000-0 0  9991
2 43581  54.3629 240.7990 0005974 276.3339 123.2787  1.86231902 21691
BEIDOU-3 M10 (C24)      
1 43582U 18062B   21279.25333258  .00000013  00000-0  00000-0 0  9995
2 43582  54.3624 240.7846 0005615 333.8506 231.9109  1.86232312 21695
BEIDOU-3 M11 (C25)      
1 43602U 18067A   21279.25584164  .00000013  00000-0  00000-0 0  9997
2 43602  54.4401 239.3768 0007014 352.5086 256.9246  1.86231585 21189
BEIDOU-3 M12 (C26)      
1 43603U 18067B   21279.32147510  .00000013  00000-0  00000-0 0  9996
2 43603  54.4370 239.3419 0004593 337.2538 226.6235  1.86231628 21202
BEIDOU-3 M13 (C32)      
1 43622U 18072A   21279.50991139  .00000073  00000-0  00000-0 0  9993
2 43622  55.3375 119.8922 0004373 290.4250  69.7746  1.86231884 20729
BEIDOU-3 M14 (C33)      
1 43623U 18072B   21279.37603874  .00000074  00000-0  00000-0 0  9996
2 43623  55.3396 119.8883 0003277 335.0484  25.6295  1.86231890 20723
BEIDOU-3 M15 (C34)      
1 43647U 18078A   21279.07327971 -.00000076  00000-0  10000-3 0  9993
2 43647  55.1905 359.3216 0005198 353.6366  59.2863  1.86233059 20221
BEIDOU-3 M16 (C35)      
1 43648U 18078B   21279.22465253 -.00000077  00000-0  00000-0 0  9994
2 43648  55.1866 359.3219 0003102  12.0367  50.6330  1.86232392 20246
BEIDOU-3 G1 (C59)       
1 43683U 18085A   21279.40909441 -.00000281  00000-0  00000-0 0  9990
2 43683   0.9127 212.0692 0004760  30.2659  60.2173  1.00267403 10866
BEIDOU-3 M17 (C36)      
1 43706U 18093A   21278.74715715  .00000012  00000-0  00000-0 0  9991
2 43706  54.4442 240.6796 0011178 275.2956  84.5423  1.86231686 19594
BEIDOU-3 M18 (C37)      
1 43707U 18093B   21279.41909610  .00000014  00000-0  00000+0 0  9997
2 43707  54.4440 240.6466 0009931 294.4657 246.8408  1.86232212 19594
BEIDOU-3 IGSO-1 (C38)   
1 44204U 19023A   21279.37593032 -.00000200  00000-0  00000-0 0  9995
2 44204  56.1867  55.7143 0022760 185.5135  27.7349  1.00288032  9161
BEIDOU-2 G8             
1 44231U 19027A   21279.63334904 -.00000249  00000-0  00000-0 0  9992
2 44231   0.3192  40.0212 0007290 163.9404 184.0649  1.00268572  8882
BEIDOU-3 IGSO-2 (C39)   
1 44337U 19035A   21279.61160422 -.00000124  00000-0  00000-0 0  9990
2 44337  55.0970 173.9950 0020193 181.6097 359.5832  1.00278704  8507
BEIDOU-3 M23 (C45)      
1 44542U 19061A   21279.37981752  .00000014  00000-0  10000-3 0  9998
2 44542  54.6688 240.7492 0009233 320.9302 146.7185  1.86231568 13851
BEIDOU-3 M24 (C46)      
1 44543U 19061B   21279.12082921  .00000013  00000-0  10000-3 0  9991
2 44543  54.6676 240.7286 0006854 309.4703 255.5346  1.86231933 13846
BEIDOU-3 IGSO-3         
1 44709U 19073A   21279.49081718 -.00000150  00000-0  00000-0 0  9990
2 44709  57.6682 299.0155 0020355 185.7083 187.0774  1.00283681  7266
BEIDOU-3 M21            
1 44793U 19078A   21279.11821035 -.00000073  00000-0  19122+2 0  9991
2 44793  55.0397 359.3728 0004985   3.3133  34.0245  1.86232667 12714
BEIDOU-3 M22            
1 44794U 19078B   21279.23547921 -.00000077  00000-0  00000-0 0  9992
2 44794  55.0135 359.3655 0002989 355.7475  31.4003  1.86233078 12719
BEIDOU-3 M19            
1 44864U 19090A   21279.47449888  .00000073  00000-0  00000-0 0  9998
2 44864  55.2725 120.1183 0014489 266.2643 115.7235  1.86231950 12300
BEIDOU-3 M20            
1 44865U 19090B   21279.30922964  .00000075  00000-0  00000-0 0  9994
2 44865  55.2753 120.1542 0012899 283.2657  77.8227  1.86231948 12270
BEIDOU-3 G2             
1 45344U 20017A   21279.61716117 -.00000146  00000-0  00000-0 0  9993
2 45344   2.2974 340.3878 0003066 178.4238 158.9108  1.00271873  6071
BEIDOU-3 G3             
1 45807U 20040A   21279.61859242 -.00000358  00000-0  00000-0 0  9995
2 45807   2.0316 299.1145 0010668 337.4274  72.2007  1.00269158  4891
